QIANFAN-41              
1 62242U 24232F   25203.59466762  .00000082  00000+0  10910-3 0  9999
2 62242  88.9934  55.6760 0012125 242.1164 117.8760 13.50958671 79921
QIANFAN-42              
1 62243U 24232G   25204.16436649  .00000261  00000+0  10642-3 0  9996
2 62243  88.9930  53.6743 0014597 181.9538 178.1600 14.24331212 81077
QIANFAN-43              
1 62244U 24232H   25204.18297324  .00000105  00000+0  14405-3 0  9992
2 62244  88.9938  55.6752 0013599 246.4543 113.5180 13.50951639 48610
QIANFAN-44              
1 62245U 24232J   25203.87443476  .00000100  00000+0  13708-3 0  9999
2 62245  88.9937  55.5195 0011845 243.6983 116.2951 13.50947112 80049
QIANFAN-45              
1 62246U 24232K   25204.13780911  .00000105  00000+0  14371-3 0  9990
2 62246  88.9940  55.6343 0012508 242.6161 117.3717 13.50957459 80007
QIANFAN-46              
1 62247U 24232L   25203.56999200  .00000083  00000+0  11034-3 0  9998
2 62247  88.9937  55.7669 0012502 250.8953 109.0844 13.50959473 79881
QIANFAN-47              
1 62248U 24232M   25203.87029140  .00000094  00000+0  12725-3 0  9990
2 62248  88.9932  55.6750 0012939 248.9041 111.0727 13.50959078 79959
QIANFAN-48              
1 62249U 24232N   25203.61109362  .00000096  00000+0  13038-3 0  9998
2 62249  88.9936  55.6976 0015178 253.0629 106.8858 13.50952642 79925
